OBJECT_NAME,OBJECT_ID,EPOCH,MEAN_MOTION,ECCENTRICITY,INCLINATION,RA_OF_ASC_NODE,ARG_OF_PERICENTER,MEAN_ANOMALY,EPHEMERIS_TYPE,CLASSIFICATION_TYPE,NORAD_CAT_ID,ELEMENT_SET_NO,REV_AT_EPOCH,BSTAR,MEAN_MOTION_DOT,MEAN_MOTION_DDOT
STARLINK-5682,2023-015J,2026-06-07T08:02:36.980736,15.27578316,.0001452,43.0032,182.3237,263.0215,97.0471,0,U,55457,999,18443,.20471E-4,.301E-5,0
STARLINK-5020,2023-015K,2026-06-07T17:59:00.835872,15.27575468,.0001115,43.0024,180.2660,275.1184,84.9540,0,U,55458,999,18449,.68974E-5,-.72E-6,0
STARLINK-5669,2023-015L,2026-06-07T08:22:58.357920,15.27576548,.0001159,43.0023,182.4316,264.2789,95.7930,0,U,55459,999,18443,.44115E-5,-.141E-5,0
STARLINK-5678,2023-015M,2026-06-06T08:56:10.492224,15.27576689,.00012121,42.9984,187.9954,269.9583,90.1130,0,U,55460,999,18428,.10771957E-4,.34E-6,0
STARLINK-5646,2023-015N,2026-06-07T08:17:24.910080,15.27581526,.0001556,43.0014,182.4010,267.9914,92.0759,0,U,55461,999,18443,.3593E-4,.727E-5,0
STARLINK-5673,2023-015P,2026-06-07T18:52:27.348096,15.27581499,.0001446,43.0022,179.6847,265.2431,94.8255,0,U,55462,999,18450,.21347E-4,.325E-5,0
STARLINK-5677,2023-015Q,2026-06-07T18:38:27.421728,15.17341467,.0002874,42.9968,187.3042,44.7600,315.3479,0,U,55463,999,18441,.12313E-2,.24878E-3,0
STARLINK-5676,2023-015R,2026-06-01T06:17:10.899744,15.27561394,.0004563,42.9987,216.7210,301.4129,58.6276,0,U,55464,999,18350,.4211511E-5,-.148E-5,0
STARLINK-5674,2023-015S,2026-06-07T07:58:54.664032,15.27582493,.0000871,42.9979,182.2988,142.6325,217.4587,0,U,55465,999,18443,.11246E-4,.48E-6,0
STARLINK-5628,2023-015T,2026-06-07T17:55:19.185312,15.27571190,.0001164,42.9990,180.2449,267.9148,92.1570,0,U,55466,999,18449,.23936E-4,.397E-5,0
STARLINK-5679,2023-015U,2026-06-07T18:46:54.715008,15.27575479,.0001755,43.0031,179.6576,268.5211,91.5440,0,U,55467,999,18450,.50496E-5,-.123E-5,0
STARLINK-5672,2023-015V,2026-06-07T08:19:16.144896,15.27580841,.0001637,43.0009,182.4019,264.7853,95.2812,0,U,55468,999,18443,.37281E-4,.764E-5,0
STARLINK-5681,2023-015W,2026-06-07T08:04:28.163712,15.27571229,.0001292,43.0017,182.3277,259.7758,100.2948,0,U,55469,999,18443,-.14656E-4,-.665E-5,0
STARLINK-5708,2023-015X,2026-06-07T17:49:46.083072,15.27574238,.0000907,43.0053,180.2187,265.7310,94.3438,0,U,55470,999,18449,.56842E-5,-.106E-5,0
STARLINK-5711,2023-015Y,2026-06-06T19:18:15.142752,15.27585302,.00017991,43.0036,185.2095,278.1680,81.8967,0,U,55471,999,18435,.53963031E-4,.1223E-4,0
STARLINK-5705,2023-015Z,2026-06-07T08:28:02.205120,15.27579266,.0000878,43.0003,175.4162,288.5122,71.5634,0,U,55472,999,18451,.23327E-4,.38E-5,0
STARLINK-5689,2023-015AB,2026-06-07T19:22:06.026880,15.27479236,.0002041,43.0043,191.1324,268.5465,91.5152,0,U,55474,999,18437,-.51019E-3,-.14232E-3,0
STARLINK-5650,2023-015AC,2026-06-07T18:00:52.081056,15.27578692,.0001496,42.9969,180.2747,266.0274,94.0406,0,U,55475,999,18449,-.79763E-4,-.2456E-4,0
STARLINK-5685,2023-015AE,2026-06-07T18:24:13.167648,15.27579338,.0001723,43.0016,172.5094,280.6012,79.4646,0,U,55477,999,18458,.27883E-4,.505E-5,0
STARLINK-5691,2023-015AF,2026-06-07T17:25:56.360064,15.27573686,.0000925,43.0014,169.6484,242.7592,117.3165,0,U,55478,999,18461,-.36786E-5,-.363E-5,0
STARLINK-5688,2023-015AG,2026-06-07T17:32:37.682016,15.27579910,.0001522,43.0003,173.0908,276.9205,83.1474,0,U,55479,999,18457,.13331E-3,.3408E-4,0
STARLINK-5690,2023-015AH,2026-06-07T18:33:56.104128,15.27566222,.0001278,43.0058,190.8003,266.6816,93.3889,0,U,55480,999,18437,-.28895E-4,-.1057E-4,0
STARLINK-5694,2023-015AJ,2026-06-07T18:59:51.330048,15.27574953,.0001429,42.9989,191.0234,287.3640,72.7055,0,U,55481,999,18437,.14401E-3,.3702E-4,0
STARLINK-5692,2023-015AL,2026-06-07T09:03:26.762112,15.27580960,.000074,42.9977,193.0703,244.1031,115.9744,0,U,55483,999,18431,.26689E-4,.473E-5,0
STARLINK-5696,2023-015AM,2026-06-07T05:07:14.454336,15.27572860,.0001428,43.0030,194.4121,268.2398,91.8290,0,U,55484,999,18428,-.46073E-5,-.389E-5,0
STARLINK-5695,2023-015AN,2026-06-07T19:10:57.576000,15.27573614,.0001269,43.0026,191.0757,294.3804,65.6915,0,U,55485,999,18437,-.59906E-4,-.191E-4,0
STARLINK-5704,2023-015AP,2026-06-07T09:40:26.525856,15.27578082,.0000335,43.0058,193.2054,50.2020,309.8861,0,U,55486,999,18431,.73501E-5,-.6E-6,0
STARLINK-5701,2023-015AQ,2026-06-07T09:23:49.011936,15.27577822,.0001074,43.0056,193.1699,284.6607,75.4126,0,U,55487,999,18431,.21116E-4,.319E-5,0
STARLINK-5706,2023-015AR,2026-06-07T18:45:04.193856,15.27570651,.0000855,43.0009,190.9330,266.1171,93.9583,0,U,55488,999,18437,.99441E-5,.12E-6,0
STARLINK-5371,2023-015AS,2026-06-07T18:54:18.294336,15.27568716,.0000942,43.0020,190.9908,262.4568,97.6177,0,U,55489,999,18437,-.16787E-4,-.724E-5,0
