[ {"name": "STARLINK-5682", "line1": "1 55457U 23015J   26158.33515024  .00000301  00000+0  20471-4 0  9993", "line2": "2 55457  43.0032 182.3237 0001452 263.0215  97.0471 15.27578316184430"}, {"name": "STARLINK-5020", "line1": "1 55458U 23015K   26158.74931523 -.00000072  00000+0  68974-5 0  9992", "line2": "2 55458  43.0024 180.2660 0001115 275.1184  84.9540 15.27575468184497"}, {"name": "STARLINK-5669", "line1": "1 55459U 23015L   26158.34928655 -.00000141  00000+0  44115-5 0  9999", "line2": "2 55459  43.0023 182.4316 0001159 264.2789  95.7930 15.27576548184434"}, {"name": "STARLINK-5678", "line1": "1 55460U 23015M   26157.37234366  .00000034  00000+0  10772-4 0  9993", "line2": "2 55460  42.9984 187.9954 0001212 269.9583  90.1130 15.27576689184282"}, {"name": "STARLINK-5646", "line1": "1 55461U 23015N   26158.34542720  .00000727  00000+0  35930-4 0  9990", "line2": "2 55461  43.0014 182.4010 0001556 267.9914  92.0759 15.27581526184430"}, {"name": "STARLINK-5673", "line1": "1 55462U 23015P   26158.78642764  .00000325  00000+0  21347-4 0  9999", "line2": "2 55462  43.0022 179.6847 0001446 265.2431  94.8255 15.27581499184507"}, {"name": "STARLINK-5677", "line1": "1 55463U 23015Q   26158.77670627  .00024878  00000+0  12313-2 0  9998", "line2": "2 55463  42.9968 187.3042 0002874  44.7600 315.3479 15.17341467184419"}, {"name": "STARLINK-5676", "line1": "1 55464U 23015R   26152.26193171 -.00000148  00000+0  42115-5 0  9992", "line2": "2 55464  42.9987 216.7210 0004563 301.4129  58.6276 15.27561394183506"}, {"name": "STARLINK-5674", "line1": "1 55465U 23015S   26158.33257713  .00000048  00000+0  11246-4 0  9998", "line2": "2 55465  42.9979 182.2988 0000871 142.6325 217.4587 15.27582493184434"}, {"name": "STARLINK-5628", "line1": "1 55466U 23015T   26158.74674983  .00000397  00000+0  23936-4 0  9992", "line2": "2 55466  42.9990 180.2449 0001164 267.9148  92.1570 15.27571190184496"}, {"name": "STARLINK-5679", "line1": "1 55467U 23015U   26158.78257772 -.00000123  00000+0  50496-5 0  9990", "line2": "2 55467  43.0031 179.6576 0001755 268.5211  91.5440 15.27575479184507"}, {"name": "STARLINK-5672", "line1": "1 55468U 23015V   26158.34671464  .00000764  00000+0  37281-4 0  9997", "line2": "2 55468  43.0009 182.4019 0001637 264.7853  95.2812 15.27580841184431"}, {"name": "STARLINK-5681", "line1": "1 55469U 23015W   26158.33643708 -.00000665  00000+0 -14656-4 0  9990", "line2": "2 55469  43.0017 182.3277 0001292 259.7758 100.2948 15.27571229184438"}, {"name": "STARLINK-5708", "line1": "1 55470U 23015X   26158.74289448 -.00000106  00000+0  56842-5 0  9997", "line2": "2 55470  43.0053 180.2187 0000907 265.7310  94.3438 15.27574238184496"}, {"name": "STARLINK-5711", "line1": "1 55471U 23015Y   26157.80434193  .00001223  00000+0  53963-4 0  9993", "line2": "2 55471  43.0036 185.2095 0001799 278.1680  81.8967 15.27585302184356"}, {"name": "STARLINK-5705", "line1": "1 55472U 23015Z   26158.35280330  .00000380  00000+0  23327-4 0  9991", "line2": "2 55472  43.0003 175.4162 0000878 288.5122  71.5634 15.27579266184517"}, {"name": "STARLINK-5689", "line1": "1 55474U 23015AB  26158.80701420 -.00014232  00000+0 -51019-3 0  9992", "line2": "2 55474  43.0043 191.1324 0002041 268.5465  91.5152 15.27479236184377"}, {"name": "STARLINK-5650", "line1": "1 55475U 23015AC  26158.75060279 -.00002456  00000+0 -79763-4 0  9999", "line2": "2 55475  42.9969 180.2747 0001496 266.0274  94.0406 15.27578692184494"}, {"name": "STARLINK-5685", "line1": "1 55477U 23015AE  26158.76681907  .00000505  00000+0  27883-4 0  9996", "line2": "2 55477  43.0016 172.5094 0001723 280.6012  79.4646 15.27579338184586"}, {"name": "STARLINK-5691", "line1": "1 55478U 23015AF  26158.72634676 -.00000363  00000+0 -36786-5 0  9991", "line2": "2 55478  43.0014 169.6484 0000925 242.7592 117.3165 15.27573686184612"}, {"name": "STARLINK-5688", "line1": "1 55479U 23015AG  26158.73099169  .00003408  00000+0  13331-3 0  9995", "line2": "2 55479  43.0003 173.0908 0001522 276.9205  83.1474 15.27579910184579"}, {"name": "STARLINK-5690", "line1": "1 55480U 23015AH  26158.77356602 -.00001057  00000+0 -28895-4 0  9991", "line2": "2 55480  43.0058 190.8003 0001278 266.6816  93.3889 15.27566222184379"}, {"name": "STARLINK-5694", "line1": "1 55481U 23015AJ  26158.79156632  .00003702  00000+0  14401-3 0  9999", "line2": "2 55481  42.9989 191.0234 0001429 287.3640  72.7055 15.27574953184379"}, {"name": "STARLINK-5692", "line1": "1 55483U 23015AL  26158.37739308  .00000473  00000+0  26689-4 0  9996", "line2": "2 55483  42.9977 193.0703 0000740 244.1031 115.9744 15.27580960184315"}, {"name": "STARLINK-5696", "line1": "1 55484U 23015AM  26158.21336174 -.00000389  00000+0 -46073-5 0  9992", "line2": "2 55484  43.0030 194.4121 0001428 268.2398  91.8290 15.27572860184288"}, {"name": "STARLINK-5695", "line1": "1 55485U 23015AN  26158.79927750 -.00001910  00000+0 -59906-4 0  9991", "line2": "2 55485  43.0026 191.0757 0001269 294.3804  65.6915 15.27573614184378"}, {"name": "STARLINK-5704", "line1": "1 55486U 23015AP  26158.40308479 -.00000060  00000+0  73501-5 0  9993", "line2": "2 55486  43.0058 193.2054 0000335  50.2020 309.8861 15.27578082184311"}, {"name": "STARLINK-5701", "line1": "1 55487U 23015AQ  26158.39153949  .00000319  00000+0  21116-4 0  9992", "line2": "2 55487  43.0056 193.1699 0001074 284.6607  75.4126 15.27577822184310"}, {"name": "STARLINK-5706", "line1": "1 55488U 23015AR  26158.78129854  .00000012  00000+0  99441-5 0  9991", "line2": "2 55488  43.0009 190.9330 0000855 266.1171  93.9583 15.27570651184374"}, {"name": "STARLINK-5371", "line1": "1 55489U 23015AS  26158.78771174 -.00000724  00000+0 -16787-4 0  9993", "line2": "2 55489  43.0020 190.9908 0000942 262.4568  97.6177 15.27568716184374"}]